YAM-7                   
1 60504U 24149AN  26068.71799904  .00009009  00000+0  30984-3 0  9997
2 60504  97.3828 149.4631 0001973 296.5121  63.5918 15.30304554 86835
STARLINK-35652          
1 66393U 25257P   26068.72225568  .00033843  00000+0  11495-2 0  9999
2 66393  53.1596 217.2148 0000925  95.0031 265.1075 15.30202546 19731
